{
  "type": "FeatureCollection",
  "features": [
    {
      "type": "Feature",
      "properties": {
        "norad_id": 56564,
        "name": "BEIDOU-3 G4 (C62)",
        "group": "gnss",
        "lat": 0.8563908182843095,
        "lon": 36.505937895859496,
        "alt_km": 35796.94925593923,
        "timestamp": "2025-12-04T10:51:50.349722+00:00",
        "meta_object_name": "BEIDOU-3 G4 (C62)",
        "meta_object_id": "2023-066A",
        "meta_epoch": "2025-12-04T04:12:54.872640",
        "meta_mean_motion": 1.00270929,
        "meta_eccentricity": 0.0003299,
        "meta_inclination": 0.835,
        "meta_ra_of_asc_node": 301.3048,
        "meta_arg_of_pericenter": 235.8182,
        "meta_mean_anomaly": 119.4268,
        "meta_ephemeris_type": 0,
        "meta_classification_type": "U",
        "meta_norad_cat_id": 56564,
        "meta_element_set_no": 999,
        "meta_rev_at_epoch": 943,
        "meta_bstar": 0,
        "meta_mean_motion_dot": -9.4e-07,
        "meta_mean_motion_ddot": 0,
        "tle_line1": "1 56564U 23066A   25338.17563510 -.00000094  00000+0  00000+0 0  9994",
        "tle_line2": "2 56564   0.8350 301.3048 0003299 235.8182 119.4268  1.00270929  9432"
      },
      "geometry": {
        "type": "Point",
        "coordinates": [
          36.505937895859496,
          0.8563908182843095
        ]
      }
    },
    {
      "type": "Feature",
      "properties": {
        "norad_id": 56759,
        "name": "NVS-01 (IRNSS-1J)",
        "group": "gnss",
        "lat": 2.4293048526470606,
        "lon": 6.103090653478119,
        "alt_km": 35798.36101381204,
        "timestamp": "2025-12-04T10:51:50.349733+00:00",
        "meta_object_name": "NVS-01 (IRNSS-1J)",
        "meta_object_id": "2023-076A",
        "meta_epoch": "2025-12-04T00:38:38.042880",
        "meta_mean_motion": 1.0026691,
        "meta_eccentricity": 0.0008647,
        "meta_inclination": 2.6412,
        "meta_ra_of_asc_node": 251.922,
        "meta_arg_of_pericenter": 6.4463,
        "meta_mean_anomaly": 313.9315,
        "meta_ephemeris_type": 0,
        "meta_classification_type": "U",
        "meta_norad_cat_id": 56759,
        "meta_element_set_no": 999,
        "meta_rev_at_epoch": 915,
        "meta_bstar": 0,
        "meta_mean_motion_dot": -3.17e-06,
        "meta_mean_motion_ddot": 0,
        "tle_line1": "1 56759U 23076A   25338.02682920 -.00000317  00000+0  00000+0 0  9990",
        "tle_line2": "2 56759   2.6412 251.9220 0008647   6.4463 313.9315  1.00266910  9153"
      },
      "geometry": {
        "type": "Point",
        "coordinates": [
          6.103090653478119,
          2.4293048526470606
        ]
      }
    },
    {
      "type": "Feature",
      "properties": {
        "norad_id": 57517,
        "name": "COSMOS 2569 (703K)",
        "group": "gnss",
        "lat": -40.26804805358382,
        "lon": 56.165385876783205,
        "alt_km": 19111.95483461241,
        "timestamp": "2025-12-04T10:51:50.349745+00:00",
        "meta_object_name": "COSMOS 2569 (703K)",
        "meta_object_id": "2023-114A",
        "meta_epoch": "2025-12-01T16:42:34.469856",
        "meta_mean_motion": 2.13103822,
        "meta_eccentricity": 0.0010109,
        "meta_inclination": 65.1883,
        "meta_ra_of_asc_node": 79.2867,
        "meta_arg_of_pericenter": 287.0179,
        "meta_mean_anomaly": 72.8703,
        "meta_ephemeris_type": 0,
        "meta_classification_type": "U",
        "meta_norad_cat_id": 57517,
        "meta_element_set_no": 999,
        "meta_rev_at_epoch": 1805,
        "meta_bstar": 0,
        "meta_mean_motion_dot": -1.6e-07,
        "meta_mean_motion_ddot": 0,
        "tle_line1": "1 57517U 23114A   25335.69623229 -.00000016  00000+0  00000+0 0  9999",
        "tle_line2": "2 57517  65.1883  79.2867 0010109 287.0179  72.8703  2.13103822 18055"
      },
      "geometry": {
        "type": "Point",
        "coordinates": [
          56.165385876783205,
          -40.26804805358382
        ]
      }
    },
    {
      "type": "Feature",
      "properties": {
        "norad_id": 58654,
        "name": "BEIDOU-3 M28 (C50)",
        "group": "gnss",
        "lat": 36.59236741515723,
        "lon": 99.43898424858335,
        "alt_km": 21528.104475758082,
        "timestamp": "2025-12-04T10:51:50.349756+00:00",
        "meta_object_name": "BEIDOU-3 M28 (C50)",
        "meta_object_id": "2023-207A",
        "meta_epoch": "2025-12-02T18:32:49.254720",
        "meta_mean_motion": 1.86229565,
        "meta_eccentricity": 0.00020071,
        "meta_inclination": 55.5759,
        "meta_ra_of_asc_node": 68.9391,
        "meta_arg_of_pericenter": 265.1815,
        "meta_mean_anomaly": 94.7983,
        "meta_ephemeris_type": 0,
        "meta_classification_type": "U",
        "meta_norad_cat_id": 58654,
        "meta_element_set_no": 999,
        "meta_rev_at_epoch": 1318,
        "meta_bstar": 0,
        "meta_mean_motion_dot": -4.9e-07,
        "meta_mean_motion_ddot": 0,
        "tle_line1": "1 58654U 23207A   25336.77279230 -.00000049  00000+0  00000+0 0  9990",
        "tle_line2": "2 58654  55.5759  68.9391 0002007 265.1815  94.7983  1.86229565 13186"
      },
      "geometry": {
        "type": "Point",
        "coordinates": [
          99.43898424858335,
          36.59236741515723
        ]
      }
    },
    {
      "type": "Feature",
      "properties": {
        "norad_id": 58655,
        "name": "BEIDOU-3 M26 (C48)",
        "group": "gnss",
        "lat": -1.5353516416038373,
        "lon": -110.07696035667064,
        "alt_km": 21525.01474984717,
        "timestamp": "2025-12-04T10:51:50.349770+00:00",
        "meta_object_name": "BEIDOU-3 M26 (C48)",
        "meta_object_id": "2023-207B",
        "meta_epoch": "2025-12-03T02:34:45.227424",
        "meta_mean_motion": 1.86231091,
        "meta_eccentricity": 0.00034591,
        "meta_inclination": 55.5782,
        "meta_ra_of_asc_node": 68.9139,
        "meta_arg_of_pericenter": 250.5367,
        "meta_mean_anomaly": 109.429,
        "meta_ephemeris_type": 0,
        "meta_classification_type": "U",
        "meta_norad_cat_id": 58655,
        "meta_element_set_no": 999,
        "meta_rev_at_epoch": 1317,
        "meta_bstar": 0,
        "meta_mean_motion_dot": -5e-07,
        "meta_mean_motion_ddot": 0,
        "tle_line1": "1 58655U 23207B   25337.10746791 -.00000050  00000+0  00000+0 0  9992",
        "tle_line2": "2 58655  55.5782  68.9139 0003459 250.5367 109.4290  1.86231091 13176"
      },
      "geometry": {
        "type": "Point",
        "coordinates": [
          -110.07696035667064,
          -1.5353516416038373
        ]
      }
    },
    {
      "type": "Feature",
      "properties": {
        "norad_id": 59598,
        "name": "GSAT0225 (GALILEO 29)",
        "group": "gnss",
        "lat": -40.341994258718465,
        "lon": -36.99872487041439,
        "alt_km": 23223.97623516529,
        "timestamp": "2025-12-04T10:51:50.349781+00:00",
        "meta_object_name": "GSAT0225 (GALILEO 29)",
        "meta_object_id": "2024-079A",
        "meta_epoch": "2025-12-04T01:47:23.954784",
        "meta_mean_motion": 1.70474518,
        "meta_eccentricity": 0.0002,
        "meta_inclination": 54.9978,
        "meta_ra_of_asc_node": 106.5374,
        "meta_arg_of_pericenter": 171.9845,
        "meta_mean_anomaly": 188.0819,
        "meta_ephemeris_type": 0,
        "meta_classification_type": "U",
        "meta_norad_cat_id": 59598,
        "meta_element_set_no": 999,
        "meta_rev_at_epoch": 999,
        "meta_bstar": 0,
        "meta_mean_motion_dot": 1.5e-07,
        "meta_mean_motion_ddot": 0,
        "tle_line1": "1 59598U 24079A   25338.07458281  .00000015  00000+0  00000+0 0  9998",
        "tle_line2": "2 59598  54.9978 106.5374 0002000 171.9845 188.0819  1.70474518  9992"
      },
      "geometry": {
        "type": "Point",
        "coordinates": [
          -36.99872487041439,
          -40.341994258718465
        ]
      }
    },
    {
      "type": "Feature",
      "properties": {
        "norad_id": 59600,
        "name": "GSAT0227 (GALILEO 30)",
        "group": "gnss",
        "lat": 45.38106246785148,
        "lon": -118.71282575205177,
        "alt_km": 23206.661567022653,
        "timestamp": "2025-12-04T10:51:50.349792+00:00",
        "meta_object_name": "GSAT0227 (GALILEO 30)",
        "meta_object_id": "2024-079C",
        "meta_epoch": "2025-12-03T16:06:35.879040",
        "meta_mean_motion": 1.70474617,
        "meta_eccentricity": 0.00034037,
        "meta_inclination": 54.9912,
        "meta_ra_of_asc_node": 106.5479,
        "meta_arg_of_pericenter": 113.2328,
        "meta_mean_anomaly": 246.7577,
        "meta_ephemeris_type": 0,
        "meta_classification_type": "U",
        "meta_norad_cat_id": 59600,
        "meta_element_set_no": 999,
        "meta_rev_at_epoch": 1003,
        "meta_bstar": 0,
        "meta_mean_motion_dot": 1.8e-07,
        "meta_mean_motion_ddot": 0,
        "tle_line1": "1 59600U 24079C   25337.67124860  .00000018  00000+0  00000+0 0  9993",
        "tle_line2": "2 59600  54.9912 106.5479 0003403 113.2328 246.7577  1.70474617 10033"
      },
      "geometry": {
        "type": "Point",
        "coordinates": [
          -118.71282575205177,
          45.38106246785148
        ]
      }
    }
  ]
}